DMSP 5D-3 F16 (USA 172) 
1 28054U 03048A   26194.49844352 -.00000062  00000+0 -87504-5 0  9993
2 28054  98.9896 218.5000 0008111  75.3910  86.8657 14.14484851173205
METEOSAT-9 (MSG-2)      
1 28912U 05049B   26194.21363281  .00000115  00000+0  00000+0 0  9993
2 28912   9.4181  53.9066 0002075 356.1561   3.6006  1.00271011  7259
DMSP 5D-3 F17 (USA 191) 
1 29522U 06050A   26194.47426194 -.00000020  00000+0  12201-4 0  9992
2 29522  98.7386 200.5071 0009815 347.9513  12.1425 14.14996143 16142
FENGYUN 3A              
1 32958U 08026A   26194.40812286  .00000010  00000+0  25340-4 0  9994
2 32958  98.6887 134.7515 0009708  56.5643 303.6460 14.19576282939125
GOES 14                 
1 35491U 09033A   26194.51467492 -.00000362  00000+0  00000+0 0  9997
2 35491   1.7552  82.7149 0001876  40.5696 119.5072  1.00098892  6858
DMSP 5D-3 F18 (USA 210) 
1 35951U 09057A   26194.51801730  .00000157  00000+0  10440-3 0  9995
2 35951  98.9055 175.2321 0011123 170.1639 189.9754 14.14910939863312
EWS-G2 (GOES 15)        
1 36411U 10008A   26193.89142229  .00000020  00000+0  00000+0 0  9992
2 36411   1.3455  82.4942 0005186  53.7092 178.8248  1.00268270 59895
COMS 1                  
1 36744U 10032A   26194.41228324 -.00000255  00000+0  00000+0 0  9999
2 36744   4.8701  75.0394 0011248  14.7012 319.1150  0.99168371 51342
FENGYUN 3B              
1 37214U 10059A   26194.47940855  .00000366  00000+0  21227-3 0  9997
2 37214  98.9615 240.6035 0023126 111.2445 359.6848 14.14848380811148
SUOMI NPP               
1 37849U 11061A   26194.49082727  .00000001  00000+0  21540-4 0  9997
2 37849  98.7956 135.1880 0000675 224.5299 135.5822 14.19522370762177
METEOSAT-10 (MSG-3)     
1 38552U 12035B   26194.34718384 -.00000014  00000+0  00000+0 0  9998
2 38552   4.7314  60.8888 0001081  16.9071 338.4680  1.00270393 51111
METOP-B                 
1 38771U 12049A   26194.44541484  .00000048  00000+0  41540-4 0  9997
2 38771  98.6491 245.4189 0001064 266.2192  93.8864 14.21446051716995
INSAT-3D                
1 39216U 13038B   26194.51611839 -.00000345  00000+0  00000+0 0  9993
2 39216   1.9916  82.2085 0000507  85.0089  79.4888  1.00269219 47348
FENGYUN 3C              
1 39260U 13052A   26194.47564625  .00000020  00000+0  31172-4 0  9991
2 39260  98.4997 167.1458 0013748 311.2778  48.7212 14.15760504662283
METEOR-M 2              
1 40069U 14037A   26194.47140146  .00000319  00000+0  16521-3 0  9993
2 40069  98.5122 169.2809 0005287 332.7023  27.3877 14.21470221623059
HIMAWARI-8              
1 40267U 14060A   26194.52017515 -.00000279  00000+0  00000+0 0  9995
2 40267   0.0150 323.9344 0001058 205.8834  89.5080  1.00271964 43028
FENGYUN 2G              
1 40367U 14090A   26194.65189773 -.00000307  00000+0  00000+0 0  9991
2 40367   5.7034  72.4939 0004211 153.4306  39.5189  1.00260636 42268
METEOSAT-11 (MSG-4)     
1 40732U 15034A   26194.20643946  .00000056  00000+0  00000+0 0  9994
2 40732   3.2644  70.9465 0002213 353.5989 310.1074  1.00271240  7479
ELEKTRO-L 2             
1 41105U 15074A   26194.41557660 -.00000126  00000+0  00000+0 0  9992
2 41105   6.7568  70.1954 0000973 213.8203 142.3782  1.00272170 38760
SENTINEL-3A             
1 41335U 16011A   26194.44513301  .00000047  00000+0  37298-4 0  9991
2 41335  98.6238 261.4501 0001370  90.7728 269.3609 14.26739469541801
INSAT-3DR               
1 41752U 16054A   26194.50436551 -.00000081  00000+0  00000+0 0  9994
2 41752   0.0655  88.6958 0010621 181.2588 276.9977  1.00270618 36083
HIMAWARI-9              
1 41836U 16064A   26194.30373513 -.00000278  00000+0  00000+0 0  9992
2 41836   0.0072 104.8912 0002222  76.0059   0.3761  1.00270182 35470
GOES 16                 
1 41866U 16071A   26194.52058796 -.00000095  00000+0  00000+0 0  9997
2 41866   0.3995  85.4901 0000529  99.8644 188.7612  1.00270872 35363
FENGYUN 4A              
1 41882U 16077A   26194.57372145 -.00000363  00000+0  00000+0 0  9991
2 41882   2.3861  79.9819 0008492 159.4460  22.3231  1.00268981 35196
CYGFM05                 
1 41884U 16078A   26194.07897495  .00018762  00000+0  24403-3 0  9997
2 41884  34.9569  88.9898 0006316  15.7870 344.3051 15.57789099532793
CYGFM04                 
1 41885U 16078B   26194.03018829  .00024628  00000+0  26201-3 0  9996
2 41885  34.9326  55.6613 0004454  59.1266 300.9897 15.62986297533043
CYGFM02                 
1 41886U 16078C   26193.97930867  .00030539  00000+0  28498-3 0  9992
2 41886  34.9408  49.7493 0005165  62.8407 297.2847 15.66243544533210
CYGFM01                 
1 41887U 16078D   26194.12013118  .00017581  00000+0  22263-3 0  9998
2 41887  34.9398  89.5590 0006360   9.5607 350.5238 15.58504304532757
CYGFM08                 
1 41888U 16078E   26194.03363925  .00022901  00000+0  25945-3 0  9995
2 41888  34.9434  69.0074 0006486  45.5670 314.5586 15.61371844533019
CYGFM07                 
1 41890U 16078G   26193.99110164  .00022787  00000+0  25722-3 0  9992
2 41890  34.9450  57.6102 0004833  59.8500 300.2704 15.61478548533034
CYGFM03                 
1 41891U 16078H   26194.02620976  .00022558  00000+0  25476-3 0  9997
2 41891  34.9406  59.3057 0004819  42.9005 317.2096 15.61466681533016
