OBJECT_NAME,OBJECT_ID,EPOCH,MEAN_MOTION,ECCENTRICITY,INCLINATION,RA_OF_ASC_NODE,ARG_OF_PERICENTER,MEAN_ANOMALY,EPHEMERIS_TYPE,CLASSIFICATION_TYPE,NORAD_CAT_ID,ELEMENT_SET_NO,REV_AT_EPOCH,BSTAR,MEAN_MOTION_DOT,MEAN_MOTION_DDOT
DMSP 5D-3 F16 (USA 172),2003-048A,2026-07-13T11:57:45.520128,14.14484851,.0008111,98.9896,218.5000,75.3910,86.8657,0,U,28054,999,17320,-.87504E-5,-.62E-6,0
METEOSAT-9 (MSG-2),2005-049B,2026-07-13T05:07:37.874784,1.00271011,.0002075,9.4181,53.9066,356.1561,3.6006,0,U,28912,999,725,0,.115E-5,0
DMSP 5D-3 F17 (USA 191),2006-050A,2026-07-13T11:22:56.231616,14.14996143,.0009815,98.7386,200.5071,347.9513,12.1425,0,U,29522,999,1614,.12201E-4,-.2E-6,0
FENGYUN 3A,2008-026A,2026-07-13T09:47:41.815104,14.19576282,.0009708,98.6887,134.7515,56.5643,303.6460,0,U,32958,999,93912,.2534E-4,.1E-6,0
GOES 14,2009-033A,2026-07-13T12:21:07.913088,1.00098892,.0001876,1.7552,82.7149,40.5696,119.5072,0,U,35491,999,685,0,-.362E-5,0
DMSP 5D-3 F18 (USA 210),2009-057A,2026-07-13T12:25:56.694720,14.14910939,.0011123,98.9055,175.2321,170.1639,189.9754,0,U,35951,999,86331,.1044E-3,.157E-5,0
EWS-G2 (GOES 15),2010-008A,2026-07-12T21:23:38.885856,1.00268270,.00051868,1.3455,82.4942,53.7092,178.8248,0,U,36411,999,5989,0,.2E-6,0
COMS 1,2010-032A,2026-07-13T09:53:41.271936,0.99168371,.0011248,4.8701,75.0394,14.7012,319.1150,0,U,36744,999,5134,0,-.255E-5,0
FENGYUN 3B,2010-059A,2026-07-13T11:30:20.898720,14.14848380,.0023126,98.9615,240.6035,111.2445,359.6848,0,U,37214,999,81114,.21227E-3,.366E-5,0
SUOMI NPP,2011-061A,2026-07-13T11:46:47.476128,14.19522370,.0000675,98.7956,135.1880,224.5299,135.5822,0,U,37849,999,76217,.2154E-4,.1E-7,0
METEOSAT-10 (MSG-3),2012-035B,2026-07-13T08:19:56.683776,1.00270393,.0001081,4.7314,60.8888,16.9071,338.4680,0,U,38552,999,5111,0,-.14E-6,0
METOP-B,2012-049A,2026-07-13T10:41:23.842176,14.21446051,.0001064,98.6491,245.4189,266.2192,93.8864,0,U,38771,999,71699,.4154E-4,.48E-6,0
INSAT-3D,2013-038B,2026-07-13T12:23:12.628896,1.00269219,.0000507,1.9916,82.2085,85.0089,79.4888,0,U,39216,999,4734,0,-.345E-5,0
FENGYUN 3C,2013-052A,2026-07-13T11:24:55.836000,14.15760504,.0013748,98.4997,167.1458,311.2778,48.7212,0,U,39260,999,66228,.31172E-4,.2E-6,0
METEOR-M 2,2014-037A,2026-07-13T11:18:49.086144,14.21470221,.0005287,98.5122,169.2809,332.7023,27.3877,0,U,40069,999,62305,.16521E-3,.319E-5,0
HIMAWARI-8,2014-060A,2026-07-13T12:29:03.132960,1.00271964,.0001058,0.0150,323.9344,205.8834,89.5080,0,U,40267,999,4302,0,-.279E-5,0
FENGYUN 2G,2014-090A,2026-07-13T15:38:43.963872,1.00260636,.0004211,5.7034,72.4939,153.4306,39.5189,0,U,40367,999,4226,0,-.307E-5,0
METEOSAT-11 (MSG-4),2015-034A,2026-07-13T04:57:16.369344,1.00271240,.0002213,3.2644,70.9465,353.5989,310.1074,0,U,40732,999,747,0,.56E-6,0
ELEKTRO-L 2,2015-074A,2026-07-13T09:58:25.818240,1.00272170,.0000973,6.7568,70.1954,213.8203,142.3782,0,U,41105,999,3876,0,-.126E-5,0
SENTINEL-3A,2016-011A,2026-07-13T10:40:59.492064,14.26739469,.000137,98.6238,261.4501,90.7728,269.3609,0,U,41335,999,54180,.37298E-4,.47E-6,0
INSAT-3DR,2016-054A,2026-07-13T12:06:17.180064,1.00270618,.0010621,0.0655,88.6958,181.2588,276.9977,0,U,41752,999,3608,0,-.81E-6,0
HIMAWARI-9,2016-064A,2026-07-13T07:17:22.715232,1.00270182,.0002222,0.0072,104.8912,76.0059,0.3761,0,U,41836,999,3547,0,-.278E-5,0
GOES 16,2016-071A,2026-07-13T12:29:38.799744,1.00270872,.0000529,0.3995,85.4901,99.8644,188.7612,0,U,41866,999,3536,0,-.95E-6,0
FENGYUN 4A,2016-077A,2026-07-13T13:46:09.533280,1.00268981,.0008492,2.3861,79.9819,159.4460,22.3231,0,U,41882,999,3519,0,-.363E-5,0
CYGFM05,2016-078A,2026-07-13T01:53:43.435680,15.57789099,.00063165,34.9569,88.9898,15.7870,344.3051,0,U,41884,999,53279,.24402602E-3,.18762E-3,0
CYGFM04,2016-078B,2026-07-13T00:43:28.268256,15.62986297,.00044542,34.9326,55.6613,59.1266,300.9897,0,U,41885,999,53304,.26200954E-3,.24628E-3,0
CYGFM02,2016-078C,2026-07-12T23:30:12.269088,15.66243544,.00051654,34.9408,49.7493,62.8407,297.2847,0,U,41886,999,53321,.2849815E-3,.30539E-3,0
CYGFM01,2016-078D,2026-07-13T02:52:59.333952,15.58504304,.00063609,34.9398,89.5590,9.5607,350.5238,0,U,41887,999,53275,.22262655E-3,.17581E-3,0
CYGFM08,2016-078E,2026-07-13T00:48:26.431200,15.61371844,.00064862,34.9434,69.0074,45.5670,314.5586,0,U,41888,999,53301,.25945012E-3,.22901E-3,0
CYGFM07,2016-078G,2026-07-12T23:47:11.181696,15.61478548,.00048338,34.9450,57.6102,59.8500,300.2704,0,U,41890,999,53303,.25721911E-3,.22787E-3,0
CYGFM03,2016-078H,2026-07-13T00:37:44.523264,15.61466681,.00048198,34.9406,59.3057,42.9005,317.2096,0,U,41891,999,53301,.25476467E-3,.22558E-3,0
